STARLINK-33624          
1 63071U 25035V   26067.29301659  .00028577  00000+0  10441-2 0  9998
2 63071  42.9998 151.7103 0000846 237.5448 122.5322 15.27577311 59447
KUIPER-00209            
1 67776U 26030N   26068.61786546  .00035298  00000+0  11963-2 0  9997
2 67776  51.8838 220.0775 0012191  59.1967 301.0215 15.30161950  5077
